start=new Date('2022-04-18T00:00:00.000Z').valueOf();
sats=[{"INCLINATION":"53.2182","MEAN_ELEMENT_THEORY":"SGP4","DECAY_DATE":null,"FILE":"3405839","GP_ID":"201496498","ELEMENT_SET_NO":"999","ECCENTRICITY":"0.00022190","MEAN_MOTION_DDOT":"0.0000000000000","OBJECT_ID":"2022-005AT","PERIAPSIS":"538.138","MEAN_ANOMALY":"31.7057","EPOCH":"2022-04-17T22:00:00.999936","TLE_LINE1":"1 51145U 22005AT  22107.91667824 -.00021751  00000-0 -13517-2 0  9997","RA_OF_ASC_NODE":"211.7143","ARG_OF_PERICENTER":"28.5763","OBJECT_TYPE":"PAYLOAD","EPHEMERIS_TYPE":"0","RCS_SIZE":"LARGE","OBJECT_NAME":"STARLINK-3365","CLASSIFICATION_TYPE":"U","SITE":"AFETR","BSTAR":"-0.00135170000000","MEAN_MOTION":"15.08863792","SEMIMAJOR_AXIS":"6917.808","REV_AT_EPOCH":"360","LAUNCH_DATE":"2022-01-19","TIME_SYSTEM":"UTC","NORAD_CAT_ID":"51145","APOAPSIS":"541.208","MEAN_MOTION_DOT":"-0.00021751","REF_FRAME":"TEME","PERIOD":"95.436","COUNTRY_CODE":"US","CENTER_NAME":"EARTH","TLE_LINE2":"2 51145  53.2182 211.7143 0002219  28.5763  31.7057 15.08863792  3604"},{"TLE_LINE2":"2 51146  53.2175 202.0546 0001620  42.1707  22.7777 15.21553281  3661","CENTER_NAME":"EARTH","PERIOD":"94.640","COUNTRY_CODE":"US","MEAN_MOTION_DOT":"-0.00724789","REF_FRAME":"TEME","TIME_SYSTEM":"UTC","LAUNCH_DATE":"2022-01-19","APOAPSIS":"502.271","NORAD_CAT_ID":"51146","SEMIMAJOR_AXIS":"6879.292","REV_AT_EPOCH":"366","MEAN_MOTION":"15.21553281","BSTAR":"-0.03407300000000","CLASSIFICATION_TYPE":"U","SITE":"AFETR","RCS_SIZE":"LARGE","OBJECT_NAME":"STARLINK-3354","RA_OF_ASC_NODE":"202.0546","ARG_OF_PERICENTER":"42.1707","OBJECT_TYPE":"PAYLOAD","EPHEMERIS_TYPE":"0","EPOCH":"2022-04-17T22:00:00.999936","TLE_LINE1":"1 51146U 22005AU  22107.91667824 -.00724789  00000-0 -34073-1 0  9998","PERIAPSIS":"500.042","MEAN_ANOMALY":"22.7777","ECCENTRICITY":"0.00016200","MEAN_MOTION_DDOT":"0.0000000000000","OBJECT_ID":"2022-005AU","ELEMENT_SET_NO":"999","INCLINATION":"53.2175","MEAN_ELEMENT_THEORY":"SGP4","DECAY_DATE":null,"FILE":"3405839","GP_ID":"201496748"},{"CENTER_NAME":"EARTH","TLE_LINE2":"2 51147  53.2205 211.6964 0001547  48.6732 331.6384 15.08863499  3603","MEAN_MOTION_DOT":"-0.00023983","REF_FRAME":"TEME","PERIOD":"95.436","COUNTRY_CODE":"US","SEMIMAJOR_AXIS":"6917.809","REV_AT_EPOCH":"360","LAUNCH_DATE":"2022-01-19","TIME_SYSTEM":"UTC","NORAD_CAT_ID":"51147","APOAPSIS":"540.744","BSTAR":"-0.00149280000000","MEAN_MOTION":"15.08863499","RCS_SIZE":"LARGE","OBJECT_NAME":"STARLINK-3352","CLASSIFICATION_TYPE":"U","SITE":"AFETR","TLE_LINE1":"1 51147U 22005AV  22107.91667824 -.00023983  00000-0 -14928-2 0  9995","EPOCH":"2022-04-17T22:00:00.999936","OBJECT_TYPE":"PAYLOAD","ARG_OF_PERICENTER":"48.6732","RA_OF_ASC_NODE":"211.6964","EPHEMERIS_TYPE":"0","MEAN_MOTION_DDOT":"0.0000000000000","ECCENTRICITY":"0.00015470","OBJECT_ID":"2022-005AV","PERIAPSIS":"538.603","MEAN_ANOMALY":"331.6384","MEAN_ELEMENT_THEORY":"SGP4","INCLINATION":"53.2205","GP_ID":"201497991","FILE":"3405839","DECAY_DATE":null,"ELEMENT_SET_NO":"999"},{"PERIAPSIS":"538.102","MEAN_ANOMALY":"42.9114","MEAN_MOTION_DDOT":"0.0000000000000","ECCENTRICITY":"0.00023560","OBJECT_ID":"2022-005AW","ELEMENT_SET_NO":"999","MEAN_ELEMENT_THEORY":"SGP4","INCLINATION":"53.2161","GP_ID":"201497748","DECAY_DATE":null,"FILE":"3405839","CLASSIFICATION_TYPE":"U","SITE":"AFETR","RCS_SIZE":"LARGE","OBJECT_NAME":"STARLINK-3359","OBJECT_TYPE":"PAYLOAD","RA_OF_ASC_NODE":"211.7101","ARG_OF_PERICENTER":"37.4316","EPHEMERIS_TYPE":"0","TLE_LINE1":"1 51148U 22005AW  22107.91667824 -.00020399  00000-0 -12670-2 0  9996","EPOCH":"2022-04-17T22:00:00.999936","LAUNCH_DATE":"2022-01-19","TIME_SYSTEM":"UTC","NORAD_CAT_ID":"51148","APOAPSIS":"541.362","SEMIMAJOR_AXIS":"6917.867","REV_AT_EPOCH":"360","MEAN_MOTION":"15.08844462","BSTAR":"-0.00126700000000","TLE_LINE2":"2 51148  53.2161 211.7101 0002356  37.4316  42.9114 15.08844462  3604","CENTER_NAME":"EARTH","PERIOD":"95.437","COUNTRY_CODE":"US","MEAN_MOTION_DOT":"-0.00020399","REF_FRAME":"TEME"},{"CENTER_NAME":"EARTH","TLE_LINE2":"2 51149  53.2157 211.7097 0002343  30.8073  69.5163 15.08849262  3609","REF_FRAME":"TEME","MEAN_MOTION_DOT":"-0.00019775","COUNTRY_CODE":"US","PERIOD":"95.437","SEMIMAJOR_AXIS":"6917.852","REV_AT_EPOCH":"360","NORAD_CAT_ID":"51149","APOAPSIS":"541.338","LAUNCH_DATE":"2022-01-19","TIME_SYSTEM":"UTC","BSTAR":"-0.00122740000000","MEAN_MOTION":"15.08849262","OBJECT_NAME":"STARLINK-3360","RCS_SIZE":"LARGE","SITE":"AFETR","CLASSIFICATION_TYPE":"U","TLE_LINE1":"1 51149U 22005AX  22107.91667824 -.00019775  00000-0 -12274-2 0  9993","EPOCH":"2022-04-17T22:00:00.999936","EPHEMERIS_TYPE":"0","OBJECT_TYPE":"PAYLOAD","ARG_OF_PERICENTER":"30.8073","RA_OF_ASC_NODE":"211.7097","OBJECT_ID":"2022-005AX","MEAN_MOTION_DDOT":"0.0000000000000","ECCENTRICITY":"0.00023430","MEAN_ANOMALY":"69.5163","PERIAPSIS":"538.096","GP_ID":"201496990","FILE":"3405839","DECAY_DATE":null,"MEAN_ELEMENT_THEORY":"SGP4","INCLINATION":"53.2157","ELEMENT_SET_NO":"999"},{"MEAN_ANOMALY":"83.2580","PERIAPSIS":"498.487","OBJECT_ID":"2022-005AY","ECCENTRICITY":"0.00016420","MEAN_MOTION_DDOT":"0.0000000000000","ELEMENT_SET_NO":"999","FILE":"3405839","DECAY_DATE":null,"GP_ID":"201497240","INCLINATION":"53.2174","MEAN_ELEMENT_THEORY":"SGP4","SITE":"AFETR","CLASSIFICATION_TYPE":"U","OBJECT_NAME":"STARLINK-3357","RCS_SIZE":"LARGE","EPHEMERIS_TYPE":"0","RA_OF_ASC_NODE":"202.0530","ARG_OF_PERICENTER":"46.0813","OBJECT_TYPE":"PAYLOAD","EPOCH":"2022-04-17T22:00:00.999936","TLE_LINE1":"1 51150U 22005AY  22107.91667824 -.00723953  00000-0 -33520-1 0  9991","NORAD_CAT_ID":"51150","APOAPSIS":"500.746","LAUNCH_DATE":"2022-01-19","TIME_SYSTEM":"UTC","REV_AT_EPOCH":"365","SEMIMAJOR_AXIS":"6877.752","MEAN_MOTION":"15.22064435","BSTAR":"-0.03352000000000","TLE_LINE2":"2 51150  53.2174 202.0530 0001642  46.0813  83.2580 15.22064435  3655","CENTER_NAME":"EARTH","COUNTRY_CODE":"US","PERIOD":"94.608","REF_FRAME":"TEME","MEAN_MOTION_DOT":"-0.00723953"},{"MEAN_MOTION_DOT":"-0.00020314","REF_FRAME":"TEME","PERIOD":"95.437","COUNTRY_CODE":"US","CENTER_NAME":"EARTH","TLE_LINE2":"2 51151  53.2148 211.7068 0002061  36.5035 103.8154 15.08847537  3591","BSTAR":"-0.00126150000000","MEAN_MOTION":"15.08847537","REV_AT_EPOCH":"359","SEMIMAJOR_AXIS":"6917.857","TIME_SYSTEM":"UTC","LAUNCH_DATE":"2022-01-19","NORAD_CAT_ID":"51151","APOAPSIS":"541.148","EPOCH":"2022-04-17T22:00:00.999936","TLE_LINE1":"1 51151U 22005AZ  22107.91667824 -.00020314  00000-0 -12615-2 0  9996","OBJECT_TYPE":"PAYLOAD","ARG_OF_PERICENTER":"36.5035","RA_OF_ASC_NODE":"211.7068","EPHEMERIS_TYPE":"0","RCS_SIZE":"LARGE","OBJECT_NAME":"STARLINK-3361","CLASSIFICATION_TYPE":"U","SITE":"AFETR","MEAN_ELEMENT_THEORY":"SGP4","INCLINATION":"53.2148","GP_ID":"201497500","DECAY_DATE":null,"FILE":"3405839","ELEMENT_SET_NO":"999","MEAN_MOTION_DDOT":"0.0000000000000","ECCENTRICITY":"0.00020610","OBJECT_ID":"2022-005AZ","PERIAPSIS":"538.297","MEAN_ANOMALY":"103.8154"},{"TLE_LINE1":"1 51152U 22005BA  22107.91667824 -.00018226  00000-0 -11295-2 0  9999","EPOCH":"2022-04-17T22:00:00.999936","OBJECT_TYPE":"PAYLOAD","RA_OF_ASC_NODE":"211.7059","ARG_OF_PERICENTER":"35.3833","EPHEMERIS_TYPE":"0","RCS_SIZE":"LARGE","OBJECT_NAME":"STARLINK-3364","CLASSIFICATION_TYPE":"U","SITE":"AFETR","MEAN_ELEMENT_THEORY":"SGP4","INCLINATION":"53.2136","GP_ID":"201498240","DECAY_DATE":null,"FILE":"3405839","ELEMENT_SET_NO":"999","MEAN_MOTION_DDOT":"0.0000000000000","ECCENTRICITY":"0.00020660","OBJECT_ID":"2022-005BA","PERIAPSIS":"538.276","MEAN_ANOMALY":"84.9330","MEAN_MOTION_DOT":"-0.00018226","REF_FRAME":"TEME","PERIOD":"95.437","COUNTRY_CODE":"US","CENTER_NAME":"EARTH","TLE_LINE2":"2 51152  53.2136 211.7059 0002066  35.3833  84.9330 15.08853139  3597","BSTAR":"-0.00112950000000","MEAN_MOTION":"15.08853139","REV_AT_EPOCH":"359","SEMIMAJOR_AXIS":"6917.840","LAUNCH_DATE":"2022-01-19","TIME_SYSTEM":"UTC","APOAPSIS":"541.134","NORAD_CAT_ID":"51152"},{"DECAY_DATE":null,"FILE":"3405839","GP_ID":"201498711","INCLINATION":"53.2165","MEAN_ELEMENT_THEORY":"SGP4","ELEMENT_SET_NO":"999","OBJECT_ID":"2022-010E","ECCENTRICITY":"0.00016330","MEAN_MOTION_DDOT":"0.0000000000000","MEAN_ANOMALY":"358.0070","PERIAPSIS":"538.601","TLE_LINE1":"1 51460U 22010E   22107.91667824 -.00013107  00000-0 -80677-3 0  9991","EPOCH":"2022-04-17T22:00:00.999936","EPHEMERIS_TYPE":"0","ARG_OF_PERICENTER":"47.3211","RA_OF_ASC_NODE":"181.6915","OBJECT_TYPE":"PAYLOAD","OBJECT_NAME":"STARLINK-3167","RCS_SIZE":"LARGE","SITE":"AFETR","CLASSIFICATION_TYPE":"U","BSTAR":"-0.00080677000000","MEAN_MOTION":"15.08844693","REV_AT_EPOCH":"359","SEMIMAJOR_AXIS":"6917.866","APOAPSIS":"540.861","NORAD_CAT_ID":"51460","LAUNCH_DATE":"2022-02-03","TIME_SYSTEM":"UTC","REF_FRAME":"TEME","MEAN_MOTION_DOT":"-0.00013107","COUNTRY_CODE":"US","PERIOD":"95.437","CENTER_NAME":"EARTH","TLE_LINE2":"2 51460  53.2165 181.6915 0001633  47.3211 358.0070 15.08844693  3590"},{"PERIAPSIS":"538.429","MEAN_ANOMALY":"260.8900","MEAN_MOTION_DDOT":"0.0000000000000","ECCENTRICITY":"0.00018940","OBJECT_ID":"2022-010F","ELEMENT_SET_NO":"999","MEAN_ELEMENT_THEORY":"SGP4","INCLINATION":"53.2162","GP_ID":"201498889","DECAY_DATE":null,"FILE":"3405839","CLASSIFICATION_TYPE":"U","SITE":"AFETR","RCS_SIZE":"LARGE","OBJECT_NAME":"STARLINK-3181","OBJECT_TYPE":"PAYLOAD","RA_OF_ASC_NODE":"181.6955","ARG_OF_PERICENTER":"44.4567","EPHEMERIS_TYPE":"0","EPOCH":"2022-04-17T22:00:00.999936","TLE_LINE1":"1 51461U 22010F   22107.91667824 -.00014996  00000-0 -92600-3 0  9998","TIME_SYSTEM":"UTC","LAUNCH_DATE":"2022-02-03","APOAPSIS":"541.049","NORAD_CAT_ID":"51461","SEMIMAJOR_AXIS":"6917.874","REV_AT_EPOCH":"359","MEAN_MOTION":"15.08842141","BSTAR":"-0.00092600000000","TLE_LINE2":"2 51461  53.2162 181.6955 0001894  44.4567 260.8900 15.08842141  3591","CENTER_NAME":"EARTH","PERIOD":"95.437","COUNTRY_CODE":"US","MEAN_MOTION_DOT":"-0.00014996","REF_FRAME":"TEME"}];
